start=new Date('2022-06-05T00:00:00.000Z').valueOf();
sats=[{"RCS_SIZE":"LARGE","SITE":"AFETR","RA_OF_ASC_NODE":"289.2032","TLE_LINE2":"2 46699  53.0557 289.2032 0001593  68.4839 291.6320 15.06385200 90050","OBJECT_TYPE":"PAYLOAD","FILE":"3481313","COUNTRY_CODE":"US","PERIOD":"95.593","MEAN_MOTION":"15.06385200","MEAN_MOTION_DDOT":"0.0000000000000","OBJECT_NAME":"STARLINK-1799","ELEMENT_SET_NO":"999","REV_AT_EPOCH":"9005","NORAD_CAT_ID":"46699","TIME_SYSTEM":"UTC","MEAN_MOTION_DOT":"-0.00001759","EPHEMERIS_TYPE":"0","GP_ID":"205386210","REF_FRAME":"TEME","APOAPSIS":"548.362","CLASSIFICATION_TYPE":"U","MEAN_ANOMALY":"291.6320","OBJECT_ID":"2020-073AF","PERIAPSIS":"546.156","BSTAR":"-0.00009926100000","LAUNCH_DATE":"2020-10-18","INCLINATION":"53.0557","ARG_OF_PERICENTER":"68.4839","ECCENTRICITY":"0.00015930","MEAN_ELEMENT_THEORY":"SGP4","TLE_LINE1":"1 46699U 20073AF  22155.81210234 -.00001759  00000-0 -99261-4 0  9997","EPOCH":"2022-06-04T19:29:25.642176","DECAY_DATE":null,"CENTER_NAME":"EARTH","SEMIMAJOR_AXIS":"6925.394"},{"SEMIMAJOR_AXIS":"6925.321","CENTER_NAME":"EARTH","DECAY_DATE":null,"EPOCH":"2022-06-04T17:59:49.676928","TLE_LINE1":"1 46700U 20073AG  22155.74988052  .00001388  00000-0  11206-3 0  9990","MEAN_ELEMENT_THEORY":"SGP4","ECCENTRICITY":"0.00013780","INCLINATION":"53.0565","ARG_OF_PERICENTER":"61.6808","LAUNCH_DATE":"2020-10-18","BSTAR":"0.00011206000000","PERIAPSIS":"546.232","OBJECT_ID":"2020-073AG","MEAN_ANOMALY":"298.4320","CLASSIFICATION_TYPE":"U","APOAPSIS":"548.140","REF_FRAME":"TEME","GP_ID":"205384965","EPHEMERIS_TYPE":"0","MEAN_MOTION_DOT":"0.00001388","TIME_SYSTEM":"UTC","NORAD_CAT_ID":"46700","REV_AT_EPOCH":"8983","ELEMENT_SET_NO":"999","MEAN_MOTION_DDOT":"0.0000000000000","PERIOD":"95.592","OBJECT_NAME":"STARLINK-1800","MEAN_MOTION":"15.06409016","FILE":"3481313","COUNTRY_CODE":"US","TLE_LINE2":"2 46700  53.0565 304.4736 0001378  61.6808 298.4320 15.06409016 89836","OBJECT_TYPE":"PAYLOAD","RA_OF_ASC_NODE":"304.4736","SITE":"AFETR","RCS_SIZE":"LARGE"},{"RA_OF_ASC_NODE":"289.3389","COUNTRY_CODE":"US","FILE":"3481313","TLE_LINE2":"2 46701  53.0568 289.3389 0001512  73.3009 286.8146 15.06396632 90050","OBJECT_TYPE":"PAYLOAD","RCS_SIZE":"LARGE","SITE":"AFETR","TIME_SYSTEM":"UTC","NORAD_CAT_ID":"46701","EPHEMERIS_TYPE":"0","MEAN_MOTION_DOT":"0.00000530","MEAN_MOTION_DDOT":"0.0000000000000","PERIOD":"95.592","OBJECT_NAME":"STARLINK-1801","MEAN_MOTION":"15.06396632","REV_AT_EPOCH":"9005","ELEMENT_SET_NO":"999","MEAN_ANOMALY":"286.8146","CLASSIFICATION_TYPE":"U","APOAPSIS":"548.271","OBJECT_ID":"2020-073AH","REF_FRAME":"TEME","GP_ID":"205384715","TLE_LINE1":"1 46701U 20073AH  22155.78260345  .00000530  00000-0  54450-4 0  9990","SEMIMAJOR_AXIS":"6925.359","CENTER_NAME":"EARTH","DECAY_DATE":null,"EPOCH":"2022-06-04T18:46:56.938080","LAUNCH_DATE":"2020-10-18","BSTAR":"0.00005445000000","PERIAPSIS":"546.177","MEAN_ELEMENT_THEORY":"SGP4","ECCENTRICITY":"0.00015120","ARG_OF_PERICENTER":"73.3009","INCLINATION":"53.0568"},{"LAUNCH_DATE":"2020-10-18","BSTAR":"0.00005036100000","PERIAPSIS":"546.102","MEAN_ELEMENT_THEORY":"SGP4","ECCENTRICITY":"0.00016020","ARG_OF_PERICENTER":"59.1414","INCLINATION":"53.0559","TLE_LINE1":"1 46702U 20073AJ  22155.59645479  .00000469  00000-0  50361-4 0  9993","SEMIMAJOR_AXIS":"6925.346","CENTER_NAME":"EARTH","DECAY_DATE":null,"EPOCH":"2022-06-04T14:18:53.693856","REF_FRAME":"TEME","GP_ID":"205385963","MEAN_ANOMALY":"300.9733","CLASSIFICATION_TYPE":"U","APOAPSIS":"548.321","OBJECT_ID":"2020-073AJ","OBJECT_NAME":"STARLINK-1802","PERIOD":"95.592","MEAN_MOTION_DDOT":"0.0000000000000","MEAN_MOTION":"15.06400709","REV_AT_EPOCH":"9030","ELEMENT_SET_NO":"999","TIME_SYSTEM":"UTC","NORAD_CAT_ID":"46702","EPHEMERIS_TYPE":"0","MEAN_MOTION_DOT":"0.00000469","RCS_SIZE":"LARGE","SITE":"AFETR","RA_OF_ASC_NODE":"270.1732","FILE":"3481313","COUNTRY_CODE":"US","TLE_LINE2":"2 46702  53.0559 270.1732 0001602  59.1414 300.9733 15.06400709 90302","OBJECT_TYPE":"PAYLOAD"},{"RCS_SIZE":"LARGE","SITE":"AFETR","RA_OF_ASC_NODE":"290.0144","OBJECT_TYPE":"PAYLOAD","TLE_LINE2":"2 46703  53.0553 290.0144 0001504  57.4273 302.6861 15.06378560 90029","COUNTRY_CODE":"US","FILE":"3481313","PERIOD":"95.594","MEAN_MOTION_DDOT":"0.0000000000000","OBJECT_NAME":"STARLINK-1803","MEAN_MOTION":"15.06378560","ELEMENT_SET_NO":"999","REV_AT_EPOCH":"9002","TIME_SYSTEM":"UTC","NORAD_CAT_ID":"46703","MEAN_MOTION_DOT":"-0.00000948","EPHEMERIS_TYPE":"0","REF_FRAME":"TEME","GP_ID":"205385710","CLASSIFICATION_TYPE":"U","MEAN_ANOMALY":"302.6861","APOAPSIS":"548.321","OBJECT_ID":"2020-073AK","BSTAR":"-0.00004476700000","LAUNCH_DATE":"2020-10-18","PERIAPSIS":"546.238","MEAN_ELEMENT_THEORY":"SGP4","INCLINATION":"53.0553","ARG_OF_PERICENTER":"57.4273","ECCENTRICITY":"0.00015040","TLE_LINE1":"1 46703U 20073AK  22155.62780808 -.00000948  00000-0 -44767-4 0  9991","CENTER_NAME":"EARTH","SEMIMAJOR_AXIS":"6925.414","EPOCH":"2022-06-04T15:04:02.618112","DECAY_DATE":null},{"TLE_LINE1":"1 46704U 20073AL  22155.87290150 -.00001091  00000-0 -54365-4 0  9990","CENTER_NAME":"EARTH","SEMIMAJOR_AXIS":"6925.370","EPOCH":"2022-06-04T20:56:58.689600","DECAY_DATE":null,"BSTAR":"-0.00005436500000","LAUNCH_DATE":"2020-10-18","PERIAPSIS":"546.301","MEAN_ELEMENT_THEORY":"SGP4","ARG_OF_PERICENTER":"65.9506","INCLINATION":"53.0551","ECCENTRICITY":"0.00013490","CLASSIFICATION_TYPE":"U","MEAN_ANOMALY":"294.1624","APOAPSIS":"548.169","OBJECT_ID":"2020-073AL","REF_FRAME":"TEME","GP_ID":"205384465","TIME_SYSTEM":"UTC","NORAD_CAT_ID":"46704","MEAN_MOTION_DOT":"-0.00001091","EPHEMERIS_TYPE":"0","PERIOD":"95.593","MEAN_MOTION_DDOT":"0.0000000000000","OBJECT_NAME":"STARLINK-1804","MEAN_MOTION":"15.06393088","ELEMENT_SET_NO":"999","REV_AT_EPOCH":"9034","RA_OF_ASC_NODE":"268.9261","OBJECT_TYPE":"PAYLOAD","TLE_LINE2":"2 46704  53.0551 268.9261 0001349  65.9506 294.1624 15.06393088 90341","FILE":"3481313","COUNTRY_CODE":"US","RCS_SIZE":"LARGE","SITE":"AFETR"},{"RCS_SIZE":"LARGE","SITE":"AFETR","RA_OF_ASC_NODE":"304.1479","FILE":"3481313","COUNTRY_CODE":"US","TLE_LINE2":"2 46705  53.0550 304.1479 0001516  67.0613 293.0536 15.06399241 89843","OBJECT_TYPE":"PAYLOAD","PERIOD":"95.592","MEAN_MOTION":"15.06399241","MEAN_MOTION_DDOT":"0.0000000000000","OBJECT_NAME":"STARLINK-1805","REV_AT_EPOCH":"8984","ELEMENT_SET_NO":"999","NORAD_CAT_ID":"46705","TIME_SYSTEM":"UTC","EPHEMERIS_TYPE":"0","MEAN_MOTION_DOT":"-0.00000055","GP_ID":"205385215","REF_FRAME":"TEME","APOAPSIS":"548.266","MEAN_ANOMALY":"293.0536","CLASSIFICATION_TYPE":"U","OBJECT_ID":"2020-073AM","PERIAPSIS":"546.166","LAUNCH_DATE":"2020-10-18","BSTAR":"0.00001518900000","ECCENTRICITY":"0.00015160","ARG_OF_PERICENTER":"67.0613","INCLINATION":"53.0550","MEAN_ELEMENT_THEORY":"SGP4","TLE_LINE1":"1 46705U 20073AM  22155.81991453 -.00000055  00000-0  15189-4 0  9998","DECAY_DATE":null,"EPOCH":"2022-06-04T19:40:40.615392","SEMIMAJOR_AXIS":"6925.351","CENTER_NAME":"EARTH"},{"OBJECT_TYPE":"PAYLOAD","TLE_LINE2":"2 46706  53.0558 289.2859 0001835  53.9281 306.1878 15.06391271 90051","COUNTRY_CODE":"US","FILE":"3481313","RA_OF_ASC_NODE":"289.2859","SITE":"AFETR","RCS_SIZE":"LARGE","MEAN_MOTION_DOT":"0.00000465","EPHEMERIS_TYPE":"0","NORAD_CAT_ID":"46706","TIME_SYSTEM":"UTC","ELEMENT_SET_NO":"999","REV_AT_EPOCH":"9005","MEAN_MOTION_DDOT":"0.0000000000000","PERIOD":"95.593","OBJECT_NAME":"STARLINK-1807","MEAN_MOTION":"15.06391271","OBJECT_ID":"2020-073AN","APOAPSIS":"548.511","CLASSIFICATION_TYPE":"U","MEAN_ANOMALY":"306.1878","GP_ID":"205385463","REF_FRAME":"TEME","EPOCH":"2022-06-04T19:02:52.009728","DECAY_DATE":null,"CENTER_NAME":"EARTH","SEMIMAJOR_AXIS":"6925.375","TLE_LINE1":"1 46706U 20073AN  22155.79365752  .00000465  00000-0  50160-4 0  9995","ARG_OF_PERICENTER":"53.9281","INCLINATION":"53.0558","ECCENTRICITY":"0.00018350","MEAN_ELEMENT_THEORY":"SGP4","PERIAPSIS":"545.970","BSTAR":"0.00005016000000","LAUNCH_DATE":"2020-10-18"},{"ECCENTRICITY":"0.00016380","INCLINATION":"53.0573","ARG_OF_PERICENTER":"47.0127","MEAN_ELEMENT_THEORY":"SGP4","PERIAPSIS":"546.085","LAUNCH_DATE":"2020-10-18","BSTAR":"0.00003072600000","DECAY_DATE":null,"EPOCH":"2022-06-04T17:14:02.967360","SEMIMAJOR_AXIS":"6925.354","CENTER_NAME":"EARTH","TLE_LINE1":"1 46707U 20073AP  22155.71808990  .00000176  00000-0  30726-4 0  9999","GP_ID":"205386211","REF_FRAME":"TEME","OBJECT_ID":"2020-073AP","APOAPSIS":"548.354","MEAN_ANOMALY":"313.0999","CLASSIFICATION_TYPE":"U","REV_AT_EPOCH":"9032","ELEMENT_SET_NO":"999","MEAN_MOTION":"15.06398070","PERIOD":"95.592","MEAN_MOTION_DDOT":"0.0000000000000","OBJECT_NAME":"STARLINK-1808","EPHEMERIS_TYPE":"0","MEAN_MOTION_DOT":"0.00000176","NORAD_CAT_ID":"46707","TIME_SYSTEM":"UTC","SITE":"AFETR","RCS_SIZE":"LARGE","FILE":"3481313","COUNTRY_CODE":"US","OBJECT_TYPE":"PAYLOAD","TLE_LINE2":"2 46707  53.0573 269.6123 0001638  47.0127 313.0999 15.06398070 90324","RA_OF_ASC_NODE":"269.6123"},{"PERIOD":"88.233","MEAN_MOTION_DDOT":"0.0000121410000","MEAN_MOTION":"16.32046056","OBJECT_NAME":"STARLINK-1809","ELEMENT_SET_NO":"999","REV_AT_EPOCH":"9231","NORAD_CAT_ID":"46708","TIME_SYSTEM":"UTC","MEAN_MOTION_DOT":"0.16464115","EPHEMERIS_TYPE":"0","RCS_SIZE":"LARGE","SITE":"AFETR","RA_OF_ASC_NODE":"164.7319","TLE_LINE2":"2 46708  53.0309 164.7319 0002851 266.6835 146.9676 16.32046056 92317","OBJECT_TYPE":"PAYLOAD","COUNTRY_CODE":"US","FILE":"3481318","PERIAPSIS":"185.177","BSTAR":"0.00288400000000","LAUNCH_DATE":"2020-10-18","INCLINATION":"53.0309","ARG_OF_PERICENTER":"266.6835","ECCENTRICITY":"0.00028510","MEAN_ELEMENT_THEORY":"SGP4","TLE_LINE1":"1 46708U 20073AQ  22156.20045015  .16464115  12141-4  28840-2 0  9995","EPOCH":"2022-06-05T04:48:38.892960","DECAY_DATE":null,"CENTER_NAME":"EARTH","SEMIMAJOR_AXIS":"6565.184","GP_ID":"205389298","REF_FRAME":"TEME","APOAPSIS":"188.921","CLASSIFICATION_TYPE":"U","MEAN_ANOMALY":"146.9676","OBJECT_ID":"2020-073AQ"}];
